STARLINK-2507           
1 48316U 21036AS  26068.47226550  .00002210  00000+0  16715-3 0  9994
2 48316  53.0537  92.5941 0001398  88.3681 271.7468 15.06417231268137
LEMUR-2-SIERRINI        
1 60579U 24149DR  26068.80891719  .00014386  00000+0  92040-3 0  9991
2 60579  97.6873 151.1225 0006580 147.8458 212.3173 15.08682764 85461
