[{"OBJECT_NAME":"STARLINK-2507","OBJECT_ID":"2021-036AS","EPOCH":"2026-03-09T11:20:03.739200","MEAN_MOTION":15.06417231,"ECCENTRICITY":0.00013989,"INCLINATION":53.0537,"RA_OF_ASC_NODE":92.5941,"ARG_OF_PERICENTER":88.3681,"MEAN_ANOMALY":271.7468,"EPHEMERIS_TYPE":0,"CLASSIFICATION_TYPE":"U","NORAD_CAT_ID":48316,"ELEMENT_SET_NO":999,"REV_AT_EPOCH":26813,"BSTAR":0.00016715312,"MEAN_MOTION_DOT":2.21e-5,"MEAN_MOTION_DDOT":0},{"OBJECT_NAME":"LEMUR-2-SIERRINI","OBJECT_ID":"2024-149DR","EPOCH":"2026-03-09T19:24:50.445216","MEAN_MOTION":15.08682764,"ECCENTRICITY":0.00065795,"INCLINATION":97.6873,"RA_OF_ASC_NODE":151.1225,"ARG_OF_PERICENTER":147.8458,"MEAN_ANOMALY":212.3173,"EPHEMERIS_TYPE":0,"CLASSIFICATION_TYPE":"U","NORAD_CAT_ID":60579,"ELEMENT_SET_NO":999,"REV_AT_EPOCH":8546,"BSTAR":0.00092040134,"MEAN_MOTION_DOT":0.00014386,"MEAN_MOTION_DDOT":0}]
